ONEWEB-0132             
1 47278U 20100W   26159.82920404  .00000409  00000+0  11004-2 0  9993
2 47278  87.8941 352.3352 0001713  86.7620 273.3705 13.12443529263485
ONEWEB-0133             
1 47279U 20100X   26159.76975876  .00000168  00000+0  43153-3 0  9993
2 47279  87.8955 352.3220 0001654  85.7238 274.4080 13.12443096263637
ONEWEB-0134             
1 47280U 20100Y   26159.81563713  .00000167  00000+0  42762-3 0  9998
2 47280  87.8954 352.3103 0001562  93.7090 266.4218 13.12445330263616
ONEWEB-0136             
1 47282U 20100AA  26159.80547090 -.00000131  00000+0 -39850-3 0  9996
2 47282  87.8949 352.3170 0001519  94.6821 265.4481 13.12444520263565
ONEWEB-0138             
1 47284U 20100AC  26159.81733985  .00000184  00000+0  47613-3 0  9991
2 47284  87.8951 352.3300 0001634  94.3010 265.8305 13.12444336263553
ONEWEB-0139             
1 47285U 20100AD  26159.78189106 -.00000290  00000+0 -84271-3 0  9999
2 47285  87.8948 352.3231 0001750  90.1376 269.9953 13.12443511263627
ONEWEB-0140             
1 47286U 20100AE  26159.81225252  .00000032  00000+0  52234-4 0  9994
2 47286  87.8950 352.3081 0001694  83.7014 276.4308 13.12444613263595
ONEWEB-0141             
1 47287U 20100AF  26159.78161594 -.00000239  00000+0 -70042-3 0  9996
2 47287  87.8950 352.3189 0002094  91.1803 268.9565 13.12443074263578
ONEWEB-0142             
1 47288U 20100AG  26159.77005362  .00000168  00000+0  43170-3 0  9997
2 47288  87.8943 352.3434 0002035 100.1305 260.0053 13.12441213263564
ONEWEB-0143             
1 47289U 20100AH  26159.78006035 -.00000222  00000+0 -65374-3 0  9990
2 47289  87.8948 352.3398 0001842  88.7874 271.3465 13.12443065263543
ONEWEB-0144             
1 47290U 20100AJ  26159.82751979  .00000411  00000+0  11060-2 0  9991
2 47290  87.8954 352.3040 0001669 100.4979 259.6338 13.12443939263471
ONEWEB-0145             
1 47291U 20100AK  26159.79869563 -.00000291  00000+0 -84558-3 0  9998
2 47291  87.8943 352.3388 0001803  91.8318 268.3017 13.12444099263665
ONEWEB-0146             
1 47292U 20100AL  26159.79530954 -.00000372  00000+0 -10707-2 0  9992
2 47292  87.8950 352.3306 0001832  78.1254 282.0080 13.12443767263577
ONEWEB-0147             
1 47293U 20100AM  26159.76142897  .00000448  00000+0  12101-2 0  9997
2 47293  87.8950 352.3185 0001615  88.2048 271.9266 13.12443481263469
ONEWEB-0115             
1 48042U 21025A   26159.49147155 -.00000108  00000+0 -32955-3 0  9994
2 48042  87.8952 321.9552 0001797  92.4711 267.6623 13.13470374252457
ONEWEB-0152             
1 48043U 21025B   26159.80972404  .00000312  00000+0  81985-3 0  9995
2 48043  87.8951 321.8882 0001775  90.7290 269.4042 13.13471360252452
ONEWEB-0154             
1 48045U 21025D   26159.47961481 -.00000227  00000+0 -65732-3 0  9992
2 48045  87.8951 321.9549 0001706  94.6576 265.4748 13.13469886252368
ONEWEB-0116             
1 48046U 21025E   26159.74707644  .00000248  00000+0  64386-3 0  9997
2 48046  87.8957 321.8977 0001745  90.8105 269.3224 13.13468729252545
ONEWEB-0150             
1 48047U 21025F   26159.49485532  .00000032  00000+0  52266-4 0  9995
2 48047  87.8955 321.9456 0002033  94.3782 265.7579 13.13470484252407
ONEWEB-0107             
1 48048U 21025G   26159.49654866  .00000104  00000+0  24967-3 0  9990
2 48048  87.8957 321.9411 0001918 102.1073 258.0271 13.13470532252388
ONEWEB-0101             
1 48049U 21025H   26159.45930558  .00000042  00000+0  81409-4 0  9998
2 48049  87.8946 321.9648 0001700  98.4370 261.6951 13.13469821252356
ONEWEB-0113             
1 48050U 21025J   26159.48647014 -.00000156  00000+0 -45827-3 0  9996
2 48050  87.8953 321.8709 0001844  92.4024 267.7316 13.13895052252465
ONEWEB-0112             
1 48051U 21025K   26159.50162960  .00000130  00000+0  32203-3 0  9996
2 48051  87.8957 321.9380 0001658 101.3954 258.7362 13.13470251252451
ONEWEB-0156             
1 48052U 21025L   26159.51009161  .00000363  00000+0  95860-3 0  9997
2 48052  87.8955 321.9464 0001904  97.4825 262.6520 13.13470369252437
ONEWEB-0161             
1 48053U 21025M   26159.48469584 -.00000219  00000+0 -63584-3 0  9993
2 48053  87.8954 321.9531 0001911  99.4676 260.6669 13.13470429252367
ONEWEB-0158             
1 48054U 21025N   26159.74879477  .00000322  00000+0  84585-3 0  9996
2 48054  87.8955 321.8973 0001599  90.6300 269.5013 13.13470879252525
ONEWEB-0157             
1 48055U 21025P   26159.46946533 -.00000231  00000+0 -66623-3 0  9998
2 48055  87.8954 321.9586 0001889 106.6809 253.4528 13.13468993252426
