OBJECT_NAME,OBJECT_ID,EPOCH,MEAN_MOTION,ECCENTRICITY,INCLINATION,RA_OF_ASC_NODE,ARG_OF_PERICENTER,MEAN_ANOMALY,EPHEMERIS_TYPE,CLASSIFICATION_TYPE,NORAD_CAT_ID,ELEMENT_SET_NO,REV_AT_EPOCH,BSTAR,MEAN_MOTION_DOT,MEAN_MOTION_DDOT
ONEWEB-0132,2020-100W,2026-06-08T19:54:03.229056,13.12443529,.0001713,87.8941,352.3352,86.7620,273.3705,0,U,47278,999,26348,.11004E-2,.409E-5,0
ONEWEB-0133,2020-100X,2026-06-08T18:28:27.156864,13.12443096,.0001654,87.8955,352.3220,85.7238,274.4080,0,U,47279,999,26363,.43153E-3,.168E-5,0
ONEWEB-0134,2020-100Y,2026-06-08T19:34:31.048032,13.12445330,.0001562,87.8954,352.3103,93.7090,266.4218,0,U,47280,999,26361,.42762E-3,.167E-5,0
ONEWEB-0136,2020-100AA,2026-06-08T19:19:52.685760,13.12444520,.0001519,87.8949,352.3170,94.6821,265.4481,0,U,47282,999,26356,-.3985E-3,-.131E-5,0
ONEWEB-0138,2020-100AC,2026-06-08T19:36:58.163040,13.12444336,.0001634,87.8951,352.3300,94.3010,265.8305,0,U,47284,999,26355,.47613E-3,.184E-5,0
ONEWEB-0139,2020-100AD,2026-06-08T18:45:55.387584,13.12443511,.000175,87.8948,352.3231,90.1376,269.9953,0,U,47285,999,26362,-.84271E-3,-.29E-5,0
ONEWEB-0140,2020-100AE,2026-06-08T19:29:38.617728,13.12444613,.0001694,87.8950,352.3081,83.7014,276.4308,0,U,47286,999,26359,.52234E-4,.32E-6,0
ONEWEB-0141,2020-100AF,2026-06-08T18:45:31.617216,13.12443074,.0002094,87.8950,352.3189,91.1803,268.9565,0,U,47287,999,26357,-.70042E-3,-.239E-5,0
ONEWEB-0142,2020-100AG,2026-06-08T18:28:52.632768,13.12441213,.0002035,87.8943,352.3434,100.1305,260.0053,0,U,47288,999,26356,.4317E-3,.168E-5,0
ONEWEB-0143,2020-100AH,2026-06-08T18:43:17.214240,13.12443065,.0001842,87.8948,352.3398,88.7874,271.3465,0,U,47289,999,26354,-.65374E-3,-.222E-5,0
ONEWEB-0144,2020-100AJ,2026-06-08T19:51:37.709856,13.12443939,.0001669,87.8954,352.3040,100.4979,259.6338,0,U,47290,999,26347,.1106E-2,.411E-5,0
ONEWEB-0145,2020-100AK,2026-06-08T19:10:07.302432,13.12444099,.0001803,87.8943,352.3388,91.8318,268.3017,0,U,47291,999,26366,-.84558E-3,-.291E-5,0
ONEWEB-0146,2020-100AL,2026-06-08T19:05:14.744256,13.12443767,.0001832,87.8950,352.3306,78.1254,282.0080,0,U,47292,999,26357,-.10707E-2,-.372E-5,0
ONEWEB-0147,2020-100AM,2026-06-08T18:16:27.463008,13.12443481,.0001615,87.8950,352.3185,88.2048,271.9266,0,U,47293,999,26346,.12101E-2,.448E-5,0
ONEWEB-0115,2021-025A,2026-06-08T11:47:43.141056,13.13470374,.0001798,87.8952,321.9552,92.4711,267.6623,0,U,48042,999,25245,-.32955E-3,-.108E-5,0
ONEWEB-0152,2021-025B,2026-06-08T19:26:00.157056,13.13471360,.0001775,87.8951,321.8882,90.7290,269.4042,0,U,48043,999,25245,.81985E-3,.312E-5,0
ONEWEB-0154,2021-025D,2026-06-08T11:30:38.718720,13.13469886,.0001706,87.8951,321.9549,94.6576,265.4748,0,U,48045,999,25236,-.65732E-3,-.227E-5,0
ONEWEB-0116,2021-025E,2026-06-08T17:55:47.404416,13.13468729,.0001745,87.8957,321.8977,90.8105,269.3224,0,U,48046,999,25254,.64386E-3,.248E-5,0
ONEWEB-0150,2021-025F,2026-06-08T11:52:35.498784,13.13470484,.0002033,87.8955,321.9456,94.3782,265.7579,0,U,48047,999,25240,.52266E-4,.32E-6,0
ONEWEB-0107,2021-025G,2026-06-08T11:55:01.804224,13.13470532,.0001919,87.8957,321.9411,102.1073,258.0271,0,U,48048,999,25238,.24967E-3,.104E-5,0
ONEWEB-0101,2021-025H,2026-06-08T11:01:24.002112,13.13469821,.00017,87.8946,321.9648,98.4370,261.6951,0,U,48049,999,25235,.81409E-4,.42E-6,0
ONEWEB-0113,2021-025J,2026-06-08T11:40:31.020096,13.13895052,.0001845,87.8953,321.8709,92.4024,267.7316,0,U,48050,999,25246,-.45827E-3,-.156E-5,0
ONEWEB-0112,2021-025K,2026-06-08T12:02:20.796576,13.13470251,.0001658,87.8957,321.9380,101.3954,258.7362,0,U,48051,999,25245,.32203E-3,.13E-5,0
ONEWEB-0156,2021-025L,2026-06-08T12:14:31.915104,13.13470369,.0001904,87.8955,321.9464,97.4825,262.6520,0,U,48052,999,25243,.9586E-3,.363E-5,0
ONEWEB-0161,2021-025M,2026-06-08T11:37:57.719712,13.13470429,.0001912,87.8954,321.9531,99.4676,260.6669,0,U,48053,999,25236,-.63584E-3,-.219E-5,0
ONEWEB-0158,2021-025N,2026-06-08T17:58:15.868128,13.13470879,.0001599,87.8955,321.8973,90.6300,269.5013,0,U,48054,999,25252,.84585E-3,.322E-5,0
ONEWEB-0157,2021-025P,2026-06-08T11:16:01.803648,13.13468993,.0001889,87.8954,321.9586,106.6809,253.4528,0,U,48055,999,25242,-.66623E-3,-.231E-5,0
